{
  "type": "FeatureCollection",
  "features": [
    {
      "type": "Feature",
      "properties": {
        "norad_id": 33860,
        "name": "IRIDIUM 33 DEB",
        "group": "iridium-33-debris",
        "lat": 74.15435650546848,
        "lon": 41.23449038456779,
        "alt_km": 660.5789825219217,
        "timestamp": "2025-12-10T04:57:30.006738+00:00",
        "meta_object_name": "IRIDIUM 33 DEB",
        "meta_object_id": "1997-051AD",
        "meta_epoch": "2025-12-09T21:13:16.278816",
        "meta_mean_motion": 14.67309939,
        "meta_eccentricity": 0.0007825,
        "meta_inclination": 86.3835,
        "meta_ra_of_asc_node": 28.5019,
        "meta_arg_of_pericenter": 7.8125,
        "meta_mean_anomaly": 164.8827,
        "meta_ephemeris_type": 0,
        "meta_classification_type": "U",
        "meta_norad_cat_id": 33860,
        "meta_element_set_no": 999,
        "meta_rev_at_epoch": 88680,
        "meta_bstar": 0.0019516,
        "meta_mean_motion_dot": 0.00011043,
        "meta_mean_motion_ddot": 0,
        "tle_line1": "1 33860U 97051AD  25343.88421619  .00011043  00000+0  19516-2 0  9990",
        "tle_line2": "2 33860  86.3835  28.5019 0007825   7.8125 164.8827 14.67309939886802"
      },
      "geometry": {
        "type": "Point",
        "coordinates": [
          41.23449038456779,
          74.15435650546848
        ]
      }
    },
    {
      "type": "Feature",
      "properties": {
        "norad_id": 33862,
        "name": "IRIDIUM 33 DEB",
        "group": "iridium-33-debris",
        "lat": 86.3176444434855,
        "lon": 141.26277326732352,
        "alt_km": 618.651897764169,
        "timestamp": "2025-12-10T04:57:30.006749+00:00",
        "meta_object_name": "IRIDIUM 33 DEB",
        "meta_object_id": "1997-051AF",
        "meta_epoch": "2025-12-09T10:37:00.405120",
        "meta_mean_motion": 14.69387938,
        "meta_eccentricity": 0.00537298,
        "meta_inclination": 86.4087,
        "meta_ra_of_asc_node": 38.984,
        "meta_arg_of_pericenter": 80.2159,
        "meta_mean_anomaly": 290.4324,
        "meta_ephemeris_type": 0,
        "meta_classification_type": "U",
        "meta_norad_cat_id": 33862,
        "meta_element_set_no": 999,
        "meta_rev_at_epoch": 88775,
        "meta_bstar": 0.0018727165,
        "meta_mean_motion_dot": 0.00011351,
        "meta_mean_motion_ddot": 0,
        "tle_line1": "1 33862U 97051AF  25343.44236580  .00011351  00000+0  18727-2 0  9990",
        "tle_line2": "2 33862  86.4087  38.9840 0053729  80.2159 290.4324 14.69387938887757"
      },
      "geometry": {
        "type": "Point",
        "coordinates": [
          141.26277326732352,
          86.3176444434855
        ]
      }
    },
    {
      "type": "Feature",
      "properties": {
        "norad_id": 33866,
        "name": "IRIDIUM 33 DEB",
        "group": "iridium-33-debris",
        "lat": -18.87979712556441,
        "lon": -84.62467275171022,
        "alt_km": 740.9648013530214,
        "timestamp": "2025-12-10T04:57:30.006760+00:00",
        "meta_object_name": "IRIDIUM 33 DEB",
        "meta_object_id": "1997-051AK",
        "meta_epoch": "2025-12-09T18:38:03.505344",
        "meta_mean_motion": 14.25259754,
        "meta_eccentricity": 0.0114241,
        "meta_inclination": 86.3,
        "meta_ra_of_asc_node": 94.2893,
        "meta_arg_of_pericenter": 170.8261,
        "meta_mean_anomaly": 341.5576,
        "meta_ephemeris_type": 0,
        "meta_classification_type": "U",
        "meta_norad_cat_id": 33866,
        "meta_element_set_no": 999,
        "meta_rev_at_epoch": 86768,
        "meta_bstar": 0.0012073,
        "meta_mean_motion_dot": 3.058e-05,
        "meta_mean_motion_ddot": 0,
        "tle_line1": "1 33866U 97051AK  25343.77642946  .00003058  00000+0  12073-2 0  9990",
        "tle_line2": "2 33866  86.3000  94.2893 0114241 170.8261 341.5576 14.25259754867688"
      },
      "geometry": {
        "type": "Point",
        "coordinates": [
          -84.62467275171022,
          -18.87979712556441
        ]
      }
    },
    {
      "type": "Feature",
      "properties": {
        "norad_id": 33867,
        "name": "IRIDIUM 33 DEB",
        "group": "iridium-33-debris",
        "lat": 36.610024857663014,
        "lon": -5.874425396635185,
        "alt_km": 371.6149881999427,
        "timestamp": "2025-12-10T04:57:30.006771+00:00",
        "meta_object_name": "IRIDIUM 33 DEB",
        "meta_object_id": "1997-051AL",
        "meta_epoch": "2025-12-09T11:53:31.735680",
        "meta_mean_motion": 15.61827995,
        "meta_eccentricity": 0.00131638,
        "meta_inclination": 86.3636,
        "meta_ra_of_asc_node": 351.7835,
        "meta_arg_of_pericenter": 91.8218,
        "meta_mean_anomaly": 268.4555,
        "meta_ephemeris_type": 0,
        "meta_classification_type": "U",
        "meta_norad_cat_id": 33867,
        "meta_element_set_no": 999,
        "meta_rev_at_epoch": 89460,
        "meta_bstar": 0.0081006888,
        "meta_mean_motion_dot": 0.00770772,
        "meta_mean_motion_ddot": 0,
        "tle_line1": "1 33867U 97051AL  25343.49550620  .00770772  00000+0  81007-2 0  9994",
        "tle_line2": "2 33867  86.3636 351.7835 0013163  91.8218 268.4555 15.61827995894601"
      },
      "geometry": {
        "type": "Point",
        "coordinates": [
          -5.874425396635185,
          36.610024857663014
        ]
      }
    },
    {
      "type": "Feature",
      "properties": {
        "norad_id": 33870,
        "name": "IRIDIUM 33 DEB",
        "group": "iridium-33-debris",
        "lat": 70.28528640091695,
        "lon": -130.84440791495587,
        "alt_km": 729.1738657831456,
        "timestamp": "2025-12-10T04:57:30.006782+00:00",
        "meta_object_name": "IRIDIUM 33 DEB",
        "meta_object_id": "1997-051AP",
        "meta_epoch": "2025-12-09T15:56:18.830112",
        "meta_mean_motion": 14.45825924,
        "meta_eccentricity": 0.0021132,
        "meta_inclination": 86.3746,
        "meta_ra_of_asc_node": 59.579,
        "meta_arg_of_pericenter": 188.1728,
        "meta_mean_anomaly": 339.5682,
        "meta_ephemeris_type": 0,
        "meta_classification_type": "U",
        "meta_norad_cat_id": 33870,
        "meta_element_set_no": 999,
        "meta_rev_at_epoch": 88092,
        "meta_bstar": 0.0013243,
        "meta_mean_motion_dot": 4.731e-05,
        "meta_mean_motion_ddot": 0,
        "tle_line1": "1 33870U 97051AP  25343.66410683  .00004731  00000+0  13243-2 0  9993",
        "tle_line2": "2 33870  86.3746  59.5790 0021132 188.1728 339.5682 14.45825924880923"
      },
      "geometry": {
        "type": "Point",
        "coordinates": [
          -130.84440791495587,
          70.28528640091695
        ]
      }
    },
    {
      "type": "Feature",
      "properties": {
        "norad_id": 33881,
        "name": "IRIDIUM 33 DEB",
        "group": "iridium-33-debris",
        "lat": -60.89596413927374,
        "lon": -65.63949191230711,
        "alt_km": 688.7043349059713,
        "timestamp": "2025-12-10T04:57:30.006792+00:00",
        "meta_object_name": "IRIDIUM 33 DEB",
        "meta_object_id": "1997-051BA",
        "meta_epoch": "2025-12-09T10:01:33.652704",
        "meta_mean_motion": 14.56473135,
        "meta_eccentricity": 0.00614296,
        "meta_inclination": 86.3869,
        "meta_ra_of_asc_node": 108.1859,
        "meta_arg_of_pericenter": 185.4197,
        "meta_mean_anomaly": 241.4979,
        "meta_ephemeris_type": 0,
        "meta_classification_type": "U",
        "meta_norad_cat_id": 33881,
        "meta_element_set_no": 999,
        "meta_rev_at_epoch": 87452,
        "meta_bstar": 0.0028428363,
        "meta_mean_motion_dot": 0.00012995,
        "meta_mean_motion_ddot": 0,
        "tle_line1": "1 33881U 97051BA  25343.41775061  .00012995  00000+0  28428-2 0  9994",
        "tle_line2": "2 33881  86.3869 108.1859 0061429 185.4197 241.4979 14.56473135874525"
      },
      "geometry": {
        "type": "Point",
        "coordinates": [
          -65.63949191230711,
          -60.89596413927374
        ]
      }
    },
    {
      "type": "Feature",
      "properties": {
        "norad_id": 33884,
        "name": "IRIDIUM 33 DEB",
        "group": "iridium-33-debris",
        "lat": -2.831708829768912,
        "lon": 10.781597425790881,
        "alt_km": 634.7472649389356,
        "timestamp": "2025-12-10T04:57:30.006803+00:00",
        "meta_object_name": "IRIDIUM 33 DEB",
        "meta_object_id": "1997-051BD",
        "meta_epoch": "2025-12-09T13:25:33.041280",
        "meta_mean_motion": 14.77329371,
        "meta_eccentricity": 0.0010012,
        "meta_inclination": 86.3692,
        "meta_ra_of_asc_node": 11.2536,
        "meta_arg_of_pericenter": 335.9245,
        "meta_mean_anomaly": 181.5662,
        "meta_ephemeris_type": 0,
        "meta_classification_type": "U",
        "meta_norad_cat_id": 33884,
        "meta_element_set_no": 999,
        "meta_rev_at_epoch": 88800,
        "meta_bstar": 0.0018735,
        "meta_mean_motion_dot": 0.00013349,
        "meta_mean_motion_ddot": 0,
        "tle_line1": "1 33884U 97051BD  25343.55941020  .00013349  00000+0  18735-2 0  9996",
        "tle_line2": "2 33884  86.3692  11.2536 0010012 335.9245 181.5662 14.77329371888002"
      },
      "geometry": {
        "type": "Point",
        "coordinates": [
          10.781597425790881,
          -2.831708829768912
        ]
      }
    }
  ]
}